ONEWEB-0594             
1 54660U 22166U   24013.63061388  .00000067  00000+0  13165-3 0  9994
2 54660  87.9222  60.2569 0001975 102.6721 257.4634 13.21826131 55034
ONEWEB-0595             
1 54661U 22166V   24013.68423216  .00000053  00000+0  96559-4 0  9996
2 54661  87.9219  60.2371 0002099  91.9693 268.1681 13.21826122 55028
ONEWEB-0597             
1 54663U 22166X   24013.56280020  .00000064  00000+0  12437-3 0  9993
2 54663  87.9221  60.2653 0001468 104.7777 255.3519 13.21826111 54543
ONEWEB-0600             
1 54664U 22166Y   24013.62114441 -.00000171  00000+0 -44486-3 0  9994
2 54664  87.9216  60.3029 0001614 103.7935 256.3378 13.21825538 54999
ONEWEB-0601             
1 54665U 22166Z   24013.61325777 -.00000253  00000+0 -64520-3 0  9992
2 54665  87.9223  60.2567 0001256  94.5576 265.5701 13.21826161 54719
ONEWEB-0602             
1 54666U 22166AA  24013.57856937 -.00000012  00000+0 -59637-4 0  9992
2 54666  87.9224  60.2693 0001472 101.9319 258.1980 13.21825777 54550
